GLOBALSTAR M075         
1 37192U 10054E   26027.90680323 -.00000078  00000+0  14445-3 0  9996
2 37192  51.9920 217.3157 0000962  87.2255  59.6141 12.62264000704226
GLOBALSTAR M073         
1 37193U 10054F   26027.75286634 -.00000103  00000+0  18982-5 0  9998
2 37193  52.0055 131.7764 0001019 105.7264  59.5945 12.62269036706194
GLOBALSTAR M083         
1 37739U 11033A   26027.52275439 -.00000097  00000+0  38507-4 0  9994
2 37739  51.9860  80.8981 0000669 104.1740  36.7648 12.62266888675182
GLOBALSTAR M088         
1 37740U 11033B   26027.08730618 -.00000089  00000+0  81080-4 0  9997
2 37740  52.0240 348.3090 0000313  63.3263  17.6140 12.62271910670679
GLOBALSTAR M091         
1 37741U 11033C   26027.80324201 -.00000079  00000+0  13911-3 0  9991
2 37741  52.0017 309.3075 0000677  48.7547 346.0795 12.62269165671559
GLOBALSTAR M085         
1 37742U 11033D   26027.02113167 -.00000081  00000+0  12951-3 0  9999
2 37742  52.0110 262.8570 0000998  59.4054  80.1694 12.62268720671960
GLOBALSTAR M081         
1 37743U 11033E   26027.82973318 -.00000081  00000+0  12958-3 0  9997
2 37743  51.9949 262.9905 0001042  73.6571  22.9566 12.62261814672213
GLOBALSTAR M089         
1 37744U 11033F   26027.01327302 -.00000078  00000+0  14595-3 0  9990
2 37744  51.9904 219.6613 0001108 101.6158  62.8306 12.62263944672958
